0 COSMOS 252 DEB *
1 05322U 68097CJ  13282.78745869  .00002534  00000-0  18535-2 0  4007
2 05322 061.2911 032.5246 0754079 173.0362 275.8677 13.08633587105259
0 COSMOS 252 DEB *
1 05322U 68097CJ  13283.60934748  .00004765  00000-0  33546-2 0  4024
2 05322 061.2931 030.3740 0753763 173.3226 187.8970 13.08632959105369
0 COSMOS 252 DEB *
1 05322U 68097CJ  13286.37586872  .00001654  00000-0  12376-2 0  4024
2 05322 061.2923 023.1467 0753245 174.5324 261.2522 13.08653349105729
0 COSMOS 252 DEB *
1 05322U 68097CJ  13287.52756023  .00001773  00000-0  13223-2 0  4034
2 05322 061.2925 020.1378 0753042 175.0240 287.0372 13.08657654105875
0 COSMOS 252 DEB *
1 05322U 68097CJ  13288.59983957  .00001774  00000-0  13243-2 0  4044
2 05322 061.2925 017.3351 0752867 175.4778 298.7239 13.08664386106016
0 COSMOS 252 DEB *
1 05322U 68097CJ  13289.82108947  .00001727  00000-0  12915-2 0  4053
2 05322 061.2923 014.1443 0752700 175.9892 292.2692 13.08669164106177
0 COSMOS 252 DEB *
1 05322U 68097CJ  13290.56233885  .00002293  00000-0  16175-2 0  4079
2 05322 061.2918 012.2059 0753003 176.2730 184.4764 13.08671766106279
0 COSMOS 252 DEB *
1 05322U 68097CJ  13291.42184131  .00001467  00000-0  11087-2 0  4062
2 05322 061.2916 009.9617 0752484 176.6577 273.7550 13.08675082106387
0 COSMOS 252 DEB *
1 05322U 68097CJ  13292.49502829  .00001516  00000-0  11436-2 0  4072
2 05322 061.2913 007.1585 0752353 177.1022 289.7931 13.08677937106521
0 COSMOS 252 DEB *
1 05322U 68097CJ  13293.79502494  .00001636  00000-0  12296-2 0  4083
2 05322 061.2908 003.7614 0752082 177.6490 294.3922 13.08681378106697
0 COSMOS 252 DEB *
1 05322U 68097CJ  13295.31567016  .00001939  00000-0  14456-2 0  4091
2 05322 061.2906 359.7874 0751905 178.2869 258.5443 13.08685857106895
